{
"type": "FeatureCollection",
"name": "Trails",
"crs": { "type": "name", "properties": { "name": "urn:ogc:def:crs:OGC:1.3:CRS84" } },
"features": [
{ "type": "Feature", "properties": { "name": "W.R1" }, "geometry": { "type": "LineString", "coordinates": [ [ -4.63867682640091, 8.271550262686503 ], [ -4.639341204333593, 8.271276841259969 ], [ -4.63987255057654, 8.271020537972316 ], [ -4.640115172192795, 8.270682552430362 ], [ -4.638829232634486, 8.269511122607197 ], [ -4.639382577667806, 8.269210534722212 ], [ -4.63966465860966, 8.269027071792673 ], [ -4.639918713586805, 8.268771906087098 ], [ -4.640320950733926, 8.268140471289598 ], [ -4.640737653996467, 8.266984156372745 ], [ -4.640775811766565, 8.266823791430079 ], [ -4.640736100850956, 8.26660850168531 ], [ -4.640540447306115, 8.266233643216578 ], [ -4.640256131099352, 8.265875721476698 ], [ -4.639866811950308, 8.265606620821229 ], [ -4.639666686715803, 8.265491428224532 ], [ -4.639544178830106, 8.265370392929031 ], [ -4.639471377109987, 8.265199433971311 ], [ -4.639301081489903, 8.264249929677387 ], [ -4.639149271728913, 8.263747828402193 ], [ -4.638527651921021, 8.263628837279612 ], [ -4.637989331726315, 8.263537126259038 ], [ -4.637290345883085, 8.263484743070059 ], [ -4.636613702200629, 8.263470938302113 ], [ -4.635820507542254, 8.26343551117867 ], [ -4.63570679400954, 8.262756469782154 ], [ -4.635231469273614, 8.260454719828321 ], [ -4.635502751706379, 8.260343122464281 ], [ -4.635679257243735, 8.260110374559671 ], [ -4.635783760112328, 8.259900018659943 ], [ -4.63612467779782, 8.25919149669658 ], [ -4.636405753134121, 8.258764965769068 ], [ -4.636831492268328, 8.258453856511119 ], [ -4.637340938745163, 8.258269466656127 ], [ -4.638111119962243, 8.258106107174306 ], [ -4.63821130564059, 8.258194088192166 ], [ -4.638239352695149, 8.25827131552351 ], [ -4.638123441330742, 8.258404376325414 ], [ -4.637979733415681, 8.258520977535735 ], [ -4.637830343120857, 8.25860445533624 ], [ -4.637664247538861, 8.2586714281226 ], [ -4.637459446327316, 8.258766181371151 ], [ -4.637182961594718, 8.258960667619432 ], [ -4.636725496450032, 8.259647568936325 ], [ -4.636384397611957, 8.260311896483465 ], [ -4.636381333063869, 8.260914073028108 ], [ -4.636577480347529, 8.261410470533951 ], [ -4.63675585264405, 8.261630718583943 ], [ -4.637066843106334, 8.261734410777178 ], [ -4.637360809412547, 8.261744256917812 ], [ -4.637598886087902, 8.261649367261873 ], [ -4.637731526536867, 8.261538335698786 ], [ -4.637830551126402, 8.261344575142816 ], [ -4.637840389318831, 8.261040690871202 ], [ -4.63782824995381, 8.260786616470412 ] ] } },
{ "type": "Feature", "properties": { "name": "W.R3" }, "geometry": { "type": "LineString", "coordinates": [ ] } },
{ "type": "Feature", "properties": { "name": "W.R3" }, "geometry": { "type": "LineString", "coordinates": [ [ -4.637828227170727, 8.260781092127038 ], [ -4.637840412102809, 8.261046215214471 ], [ -4.637830528341727, 8.261339050799609 ], [ -4.637720457979908, 8.261543905434552 ], [ -4.637598908870224, 8.261654891605641 ], [ -4.637360832191821, 8.261749781262216 ], [ -4.637072411556464, 8.261739912434797 ], [ -4.636761375547758, 8.261625171554845 ], [ -4.636582934949321, 8.261388350467398 ], [ -4.636386878729218, 8.26091405035225 ], [ -4.636384397611956, 8.260311896483465 ], [ -4.636725450920919, 8.259636520242834 ], [ -4.637188438923368, 8.258944071900842 ], [ -4.637464969187299, 8.258760634341277 ], [ -4.637664224763972, 8.258665903778194 ], [ -4.637835865972846, 8.258598908302655 ], [ -4.637985256264243, 8.258515430500704 ], [ -4.638117895705257, 8.258404399018488 ], [ -4.638239329913384, 8.258265791180587 ], [ -4.638211237297159, 8.258177515163093 ], [ -4.638116574465286, 8.258083987108897 ], [ -4.63734646160158, 8.258263919628781 ], [ -4.636837015135304, 8.258448309488971 ], [ -4.636411276011673, 8.258759418750866 ], [ -4.636119109400927, 8.259185995015564 ], [ -4.635783760112328, 8.259900018659943 ], [ -4.635679257243735, 8.260110374559673 ], [ -4.63549725154544, 8.260354193826249 ], [ -4.63522042344112, 8.260465813846832 ], [ -4.635706839527749, 8.262767518479572 ], [ -4.635809393375567, 8.263430032180111 ], [ -4.636619247901033, 8.26347091561607 ], [ -4.637295868798575, 8.26347919603049 ], [ -4.63799490021692, 8.2635426278959 ], [ -4.6385331976183, 8.26362881456661 ], [ -4.639154817426121, 8.263747805680252 ], [ -4.639301127116467, 8.264260978354043 ], [ -4.639471354291701, 8.265193909633711 ], [ -4.639549701729021, 8.265364845859855 ], [ -4.639672278079764, 8.265502454164571 ], [ -4.639866834775251, 8.265612145157608 ], [ -4.640261676823195, 8.265875698733606 ], [ -4.640551538762201, 8.266233597720481 ], [ -4.640736123690802, 8.266614026018997 ], [ -4.641833378561101, 8.266416168098791 ], [ -4.642731420256567, 8.266324089683797 ], [ -4.642925314734105, 8.266273573436886 ], [ -4.643406076823433, 8.26585726670606 ], [ -4.643781698218009, 8.26549663587943 ] ] } },
{ "type": "Feature", "properties": { "name": "W.R2" }, "geometry": { "type": "LineString", "coordinates": [ [ -4.637828272736909, 8.260792140813781 ], [ -4.637840320966991, 8.261024117841391 ], [ -4.637830505557068, 8.26133352645639 ], [ -4.637720457979908, 8.26154390543455 ], [ -4.637587817525571, 8.261654936994903 ], [ -4.637355172621683, 8.261722182231734 ], [ -4.637044660406596, 8.26173450152678 ], [ -4.636733556095699, 8.26160318758428 ], [ -4.636577457580097, 8.261404946187282 ], [ -4.636364582252452, 8.260886519318229 ], [ -4.636384306565342, 8.260289799093423 ], [ -4.636725314333958, 8.259603374162323 ], [ -4.637177415958852, 8.258960690300995 ], [ -4.637453832378293, 8.258749631021107 ], [ -4.637719567189171, 8.258638055178425 ], [ -4.637797023792987, 8.258593542784311 ], [ -4.637974210566963, 8.258526524570724 ], [ -4.638117759022802, 8.258371252959122 ], [ -4.638228261448527, 8.258271360912058 ], [ -4.63819444096506, 8.258138912842321 ], [ -4.638094300864259, 8.258061980503326 ], [ -4.637340915975893, 8.258263942310711 ], [ -4.636864766046626, 8.258453720457629 ], [ -4.636411207738578, 8.25874284570728 ], [ -4.636113563758954, 8.259186017683003 ], [ -4.635772646054547, 8.259894539640035 ], [ -4.635673643333988, 8.260093824174939 ], [ -4.635497228795981, 8.26034866947629 ], [ -4.63519812706377, 8.260438282726508 ], [ -4.63569570262359, 8.262756515124988 ], [ -4.635820575830027, 8.263452084223294 ], [ -4.636624748053743, 8.263459844238001 ], [ -4.637295868798576, 8.26347919603049 ], [ -4.638000400328126, 8.263531556506246 ], [ -4.638533197618301, 8.26362881456661 ], [ -4.639160340313419, 8.263742258619379 ], [ -4.639312127270673, 8.264238835549882 ], [ -4.639465831393387, 8.265199456701595 ], [ -4.639538610291621, 8.265364891323433 ], [ -4.639655572453851, 8.265485949355039 ], [ -4.639866811950308, 8.265606620821224 ], [ -4.640256153930466, 8.265881245811924 ], [ -4.64054047014219, 8.266239167550916 ], [ -4.64074162374379, 8.266602954599888 ], [ -4.640775811766565, 8.266823791430078 ], [ -4.64073213109931, 8.266989703459057 ], [ -4.640309882061476, 8.268146041124171 ], [ -4.641225434215388, 8.268263821630283 ], [ -4.64215070617154, 8.268050094620843 ], [ -4.642997947453292, 8.267742771119348 ], [ -4.643456047514706, 8.267210544318049 ], [ -4.643930852211967, 8.266694821804998 ] ] } },
{ "type": "Feature", "properties": { "name": "M.R1" }, "geometry": { "type": "LineString", "coordinates": [ [ -4.630320349040641, 8.270496117722407 ], [ -4.630718012585281, 8.270096735085394 ], [ -4.630983064388003, 8.269816668956773 ], [ -4.631099855647741, 8.269896297023191 ], [ -4.631136403125549, 8.270017685852043 ], [ -4.631120344954645, 8.27015862489967 ], [ -4.630982517435252, 8.270358067526681 ], [ -4.630789356550691, 8.270588120361294 ], [ -4.630452299341119, 8.270890577997523 ], [ -4.630436002505369, 8.27097351127512 ], [ -4.630469777043652, 8.271094911489419 ], [ -4.630558578357821, 8.271111122616521 ], [ -4.630647243403705, 8.271094187560005 ], [ -4.630851893712355, 8.270960765781709 ], [ -4.631061998822451, 8.270805223858082 ], [ -4.631288695765387, 8.2706385652425 ], [ -4.631376997116281, 8.270533240313513 ], [ -4.631724769881617, 8.27013958491311 ], [ -4.631945829434863, 8.269950851254718 ], [ -4.632178230398311, 8.269822840152061 ], [ -4.632510546509614, 8.269716518748524 ], [ -4.633735507946486, 8.26955130586237 ], [ -4.63543160902243, 8.269323393584353 ], [ -4.635570230878548, 8.269317302073961 ], [ -4.63569223814455, 8.269316802931035 ], [ -4.635836519656978, 8.269338310373071 ], [ -4.636025258578076, 8.269381733595283 ], [ -4.636169585677497, 8.269414289600078 ], [ -4.636325049933131, 8.269457848841956 ], [ -4.636491605782015, 8.269501362615257 ], [ -4.636663684648537, 8.269539329264513 ], [ -4.636830126574074, 8.269555221163969 ], [ -4.637007614476136, 8.269560018888992 ], [ -4.637556715464457, 8.269574343439178 ], [ -4.637961740062071, 8.269616879711608 ], [ -4.638227983231636, 8.269626837673087 ], [ -4.638505226673413, 8.26961465264039 ], [ -4.638704760678621, 8.26958621265468 ], [ -4.638798856367535, 8.269541631499079 ], [ -4.638837585534732, 8.269519375014568 ], [ -4.640112387875806, 8.270679801640309 ], [ -4.639875312054841, 8.271017764428976 ], [ -4.639338488516335, 8.271290663473227 ], [ -4.638679587892164, 8.271547489149144 ] ] } },
{ "type": "Feature", "properties": { "name": "M.R2" }, "geometry": { "type": "LineString", "coordinates": [ [ -4.630315002380053, 8.270498070247266 ], [ -4.630991942874736, 8.269822859397237 ], [ -4.631113291151664, 8.269896565629381 ], [ -4.63112773439496, 8.27001244625788 ], [ -4.631114378074367, 8.270160903387938 ], [ -4.630808773079512, 8.27056561991469 ], [ -4.630446996223668, 8.270896364104448 ], [ -4.630428679146289, 8.270970640155818 ], [ -4.630466418974778, 8.271091063391115 ], [ -4.63054098360401, 8.271109309567354 ], [ -4.630643386048076, 8.271104254249817 ], [ -4.631270069650766, 8.270661126952373 ], [ -4.631724192670172, 8.270144502019157 ], [ -4.631946817642168, 8.269939539725156 ], [ -4.632169823992035, 8.269827327392701 ], [ -4.632499906755002, 8.269714677732708 ], [ -4.634258711528185, 8.269470975533332 ], [ -4.635501135730872, 8.269322130153776 ], [ -4.635715269173406, 8.269316616553834 ], [ -4.636460874397319, 8.269489793043938 ], [ -4.636731160693027, 8.269553612581932 ], [ -4.638095544503921, 8.269626863160704 ], [ -4.638654068925518, 8.269592111308782 ], [ -4.639011774962584, 8.269405142393449 ], [ -4.639587866539594, 8.26911525129316 ], [ -4.639963330864875, 8.268719518535345 ], [ -4.640097572763811, 8.268533465396182 ], [ -4.64052062613004, 8.268387965441043 ], [ -4.640971976318963, 8.268330462622263 ], [ -4.641604927763932, 8.268281488907263 ], [ -4.642177607368022, 8.268293050011131 ], [ -4.642764387636087, 8.268337015252454 ], [ -4.64303463487627, 8.268391555531384 ] ] } },
{ "type": "Feature", "properties": { "name": "M.R3" }, "geometry": { "type": "LineString", "coordinates": [ [ -4.630319638836071, 8.270493413754128 ], [ -4.630982631860405, 8.269822897383502 ], [ -4.631110953863557, 8.269894256374471 ], [ -4.63113470812403, 8.270010099012779 ], [ -4.63111905265439, 8.270165521897024 ], [ -4.630801808871489, 8.270570285908883 ], [ -4.630442359765648, 8.270901020599604 ], [ -4.630431016438774, 8.270972949414148 ], [ -4.630466418974778, 8.271091063391118 ], [ -4.63056427075283, 8.271111533365131 ], [ -4.630636383697814, 8.271099645232436 ], [ -4.631260758618059, 8.270661164948933 ], [ -4.63160371213835, 8.270281802413402 ], [ -4.631935226571946, 8.269951180993031 ], [ -4.632167477159144, 8.269822699394014 ], [ -4.632504562257369, 8.269714658722185 ], [ -4.634268051175563, 8.269477893718413 ], [ -4.635477858276905, 8.269322225375783 ], [ -4.635712941428304, 8.269316626077336 ], [ -4.636358338830916, 8.269462387309989 ], [ -4.636733488438328, 8.269553603052238 ], [ -4.637562309162911, 8.269584990791492 ], [ -4.638100190417429, 8.269624525341051 ], [ -4.638486567171985, 8.269615985658062 ], [ -4.638674999458782, 8.269587387952814 ], [ -4.63923708684687, 8.269288279533363 ], [ -4.63959011761611, 8.269096691807192 ], [ -4.639696791116646, 8.268998865504805 ], [ -4.640007270316305, 8.268649774867056 ], [ -4.64031246083582, 8.268147666229986 ], [ -4.64045520807123, 8.267766800541423 ], [ -4.640630159812698, 8.267293051490824 ], [ -4.640768136078754, 8.266884379996529 ], [ -4.64072974207009, 8.266606283821568 ], [ -4.642190649850853, 8.266382322472046 ], [ -4.642679259906858, 8.266329302766 ], [ -4.642953681200976, 8.266267887307569 ], [ -4.643751362404333, 8.265527238437485 ] ] } },
{ "type": "Feature", "properties": { "name": "W.WDW" }, "geometry": { "type": "LineString", "coordinates": [ [ -4.637826286974794, 8.260786442169991 ], [ -4.637828572560509, 8.261340622344807 ], [ -4.637722340087223, 8.261545110168797 ], [ -4.637594775732359, 8.261656933888672 ], [ -4.637362330998025, 8.261736723752156 ], [ -4.637059720579706, 8.261735643066269 ], [ -4.636752005513497, 8.261625600098812 ], [ -4.636569508480898, 8.261399105478228 ], [ -4.636369571240194, 8.260894427693533 ], [ -4.636388074624924, 8.260300742743114 ], [ -4.636722857014116, 8.259636201002655 ], [ -4.637180929180297, 8.25895260465599 ], [ -4.637457101374525, 8.258752059486667 ], [ -4.637965955173347, 8.258529693107764 ], [ -4.638227921490397, 8.258271236047134 ], [ -4.638206522979877, 8.258162340742714 ], [ -4.638099115200022, 8.258081622795995 ], [ -4.637341028407748, 8.25826327054437 ], [ -4.63684137048392, 8.258457773099002 ], [ -4.636407288243809, 8.258749396091241 ], [ -4.636113468086336, 8.259186529019424 ], [ -4.635921979657469, 8.259602374531372 ], [ -4.635681914973683, 8.260092619730647 ], [ -4.635499077710237, 8.260348433511211 ], [ -4.635215519243197, 8.260451618813564 ], [ -4.634541287001137, 8.257254444831371 ], [ -4.634446195929996, 8.25677252495678 ], [ -4.635358376333299, 8.256703874247378 ], [ -4.635961317808332, 8.256154177389677 ] ] } },
{ "type": "Feature", "properties": { "name": "M.WDL" }, "geometry": { "type": "LineString", "coordinates": [ [ -4.630294014434355, 8.270488880674854 ], [ -4.630989596054277, 8.26981823138896 ], [ -4.631110906192414, 8.269882662613037 ], [ -4.631112164733791, 8.270188737912664 ], [ -4.630806502520858, 8.270579541926429 ], [ -4.630435357421086, 8.2708964115775 ], [ -4.63042642763735, 8.270989199674084 ], [ -4.630473478515008, 8.271109584929224 ], [ -4.630613144213819, 8.271109015202434 ], [ -4.63127243555326, 8.270670392461247 ], [ -4.631911958578477, 8.269953594765999 ], [ -4.632506870924187, 8.269710011715533 ], [ -4.635559348483698, 8.269326529587232 ], [ -4.636202226880626, 8.269425925673804 ], [ -4.636324340827509, 8.269685129861463 ], [ -4.636130072489099, 8.269992004654753 ], [ -4.636169152785523, 8.27043705152991 ], [ -4.636283984069748, 8.271187867957677 ], [ -4.636294863958679, 8.271568104201156 ], [ -4.63624098759711, 8.272050632094469 ], [ -4.635851913256849, 8.272534532164798 ], [ -4.635424905197142, 8.272851634669959 ], [ -4.635164883794714, 8.273019651281526 ], [ -4.634813510435561, 8.273614698238356 ], [ -4.634275302412362, 8.274062106895538 ], [ -4.633328550511896, 8.274789439898449 ] ] } },
{ "type": "Feature", "properties": { "name": "M.R2_2" }, "geometry": { "type": "LineString", "coordinates": [ [ -4.632763876288664, 8.268809271868317 ], [ -4.633583013419833, 8.268750275016581 ], [ -4.63422497407875, 8.268627074678561 ], [ -4.635759524741754, 8.268194143001191 ], [ -4.636168365241005, 8.267988417132097 ], [ -4.636279331635587, 8.267802460213359 ], [ -4.636287762881913, 8.267589097432557 ], [ -4.636361408913537, 8.267384742941026 ], [ -4.636519044481427, 8.267226420457089 ], [ -4.636658364105451, 8.267142374023406 ], [ -4.636861712397299, 8.266779811270922 ], [ -4.637148896776852, 8.266426180445412 ], [ -4.637557466742238, 8.266155528767332 ], [ -4.637882888803246, 8.26604289459587 ], [ -4.638199306017804, 8.266004498155462 ], [ -4.638664620746237, 8.265946941194894 ], [ -4.639046137276566, 8.265889727130592 ], [ -4.639362247592938, 8.265777130033735 ], [ -4.639631841621659, 8.265673998537926 ], [ -4.639808441707864, 8.265599073531648 ], [ -4.640144514697913, 8.265811023477303 ], [ -4.640378129986417, 8.266014118175807 ], [ -4.640546876036211, 8.2662916797759 ], [ -4.640725048277218, 8.266597027954786 ], [ -4.641990561830396, 8.266406331795794 ], [ -4.642874596354189, 8.266282124846573 ], [ -4.643765290272972, 8.265517906089435 ] ] } },
{ "type": "Feature", "properties": { "name": "M.WDN" }, "geometry": { "type": "LineString", "coordinates": [ [ -4.630303325467519, 8.270488842701591 ], [ -4.630980323173597, 8.269827544384928 ], [ -4.631101671450659, 8.269901250620723 ], [ -4.631130672362222, 8.270160836903779 ], [ -4.630834244951589, 8.270533052918335 ], [ -4.630444744715347, 8.270914923622634 ], [ -4.630417116593014, 8.270989237652492 ], [ -4.630454818293815, 8.271100385877478 ], [ -4.630622417128872, 8.271099702208058 ], [ -4.631235229564838, 8.270679819454781 ], [ -4.631893374707735, 8.269962945787825 ], [ -4.632488248914893, 8.269710087757359 ], [ -4.635661692794778, 8.269307560602668 ], [ -4.636230198076928, 8.269435086340795 ], [ -4.636333728329858, 8.269703641721398 ], [ -4.636111527009048, 8.270010630839606 ], [ -4.636283792750659, 8.271141493035067 ], [ -4.636276548023202, 8.271642380311201 ], [ -4.63519730927613, 8.271850850275905 ], [ -4.634620483309682, 8.271964511562981 ], [ -4.634164433012099, 8.272012752224313 ], [ -4.633429089058727, 8.272071409081542 ], [ -4.632824214029704, 8.272157357095169 ], [ -4.632442918656708, 8.27227021656293 ], [ -4.631904059998262, 8.272559947148503 ], [ -4.631272623780607, 8.272979907331974 ], [ -4.630714645040008, 8.273149137551293 ], [ -4.629597351598041, 8.273162970414601 ], [ -4.628433121048429, 8.27308423967996 ], [ -4.627846140733642, 8.272993879344657 ], [ -4.627220698206038, 8.272606868919457 ], [ -4.627061838727923, 8.272468387978632 ], [ -4.625104836264129, 8.269795820277654 ], [ -4.624953504144558, 8.269221373490902 ], [ -4.624747749882456, 8.26899960504992 ], [ -4.624431099087208, 8.268982341309814 ], [ -4.623351551204355, 8.269116578744105 ], [ -4.622290396547993, 8.269195087538867 ], [ -4.62096883477678, 8.269348851145988 ], [ -4.620409338270512, 8.26914706450996 ], [ -4.620073458777457, 8.268981471807782 ] ] } }
]
}
